[{"OBJECT_NAME":"STARLINK-30359","OBJECT_ID":"2023-134J","EPOCH":"2026-03-09T22:00:01.999584","MEAN_MOTION":15.25122722,"ECCENTRICITY":0.00021432,"INCLINATION":43.0006,"RA_OF_ASC_NODE":181.9136,"ARG_OF_PERICENTER":285.3673,"MEAN_ANOMALY":73.6955,"EPHEMERIS_TYPE":0,"CLASSIFICATION_TYPE":"U","NORAD_CAT_ID":57779,"ELEMENT_SET_NO":999,"REV_AT_EPOCH":557,"BSTAR":0.03249456,"MEAN_MOTION_DOT":0.00894721,"MEAN_MOTION_DDOT":0},{"OBJECT_NAME":"INNOSAT 3 (RS92S0)","OBJECT_ID":"2025-155U","EPOCH":"2026-03-09T22:04:35.098752","MEAN_MOTION":15.36713341,"ECCENTRICITY":0.00065738,"INCLINATION":97.4426,"RA_OF_ASC_NODE":38.6151,"ARG_OF_PERICENTER":146.647,"MEAN_ANOMALY":213.5189,"EPHEMERIS_TYPE":0,"CLASSIFICATION_TYPE":"U","NORAD_CAT_ID":64894,"ELEMENT_SET_NO":999,"REV_AT_EPOCH":6568,"BSTAR":0.0011717269,"MEAN_MOTION_DOT":0.00042146,"MEAN_MOTION_DDOT":0}]
